NORAD_CAT_ID,OBJECT_NAME,OBJECT_TYPE,EPOCH,MEAN_MOTION,ECCENTRICITY,INCLINATION,RA_OF_ASC_NODE,ARG_OF_PERICENTER,MEAN_ANOMALY,BSTAR,MEAN_MOTION_DOT,MEAN_MOTION_DDOT,TLE_LINE0,TLE_LINE1,TLE_LINE2,SEMIMAJOR_AXIS,PERIOD,APOGEE,PERIGEE,DECAYED
54075.0,STARLINK-5212,PAYLOAD,2024-07-31 08:37:28,15.08848066,0.000109,53.2177,90.8776,81.1044,279.0072,0.00011007,1.465e-05,0.0,0 STARLINK-5212,1 54075U 22136AA  24213.35935999  .00001465  00000-0  11007-3 0  9997,2 54075  53.2177  90.8776 0001090  81.1044 279.0072 15.08848066 98407,6917.856,95.437,540.475,538.967,0.0
54075.0,STARLINK-5212,PAYLOAD,2024-07-31 21:20:35,15.08831778,0.0001546,53.218,88.4997,90.5853,269.5317,-7.3927e-05,-1.464e-05,0.0,0 STARLINK-5212,1 54075U 22136AA  24213.88929808 -.00001464  00000-0 -73927-4 0  9998,2 54075  53.2180  88.4997 0001546  90.5853 269.5317 15.08831778 98966,6917.906,95.438,540.84,538.701,0.0
54075.0,STARLINK-5212,PAYLOAD,2024-08-01 08:28:16,15.08841736,0.0001617,53.2192,86.4208,93.7687,266.349,-4.8319e-06,-3.65e-06,0.0,0 STARLINK-5212,1 54075U 22136AA  24214.35297089 -.00000365  00000-0 -48319-5 0  9997,2 54075  53.2192  86.4208 0001617  93.7687 266.3490 15.08841736 99032,6917.875,95.437,540.859,538.621,0.0
54075.0,STARLINK-5212,PAYLOAD,2024-08-01 21:11:20,15.0885422,0.0001436,53.2193,84.0418,91.3889,268.7267,0.0002508,3.707e-05,0.0,0 STARLINK-5212,1 54075U 22136AA  24214.88287572  .00003707  00000-0  25080-3 0  9990,2 54075  53.2193  84.0418 0001436  91.3889 268.7267 15.08854220 99116,6917.837,95.437,540.695,538.709,0.0
54075.0,STARLINK-5212,PAYLOAD,2024-08-01 22:46:43,15.08862866,0.0001238,53.2179,83.7413,85.6335,274.4798,0.0002011,2.916e-05,0.0,0 STARLINK-5212,1 54075U 22136AA  24214.94911167  .00002916  00000-0  20110-3 0  9991,2 54075  53.2179  83.7413 0001238  85.6335 274.4798 15.08862866 98648,6917.81,95.436,540.532,538.819,0.0
54075.0,STARLINK-5212,PAYLOAD,2024-08-02 21:02:09,15.08835211,0.0001416,53.2161,79.5747,75.2278,284.8871,3.9568e-05,3.42e-06,0.0,0 STARLINK-5212,1 54075U 22136AA  24215.87649364  .00000342  00000-0  39568-4 0  9990,2 54075  53.2161  79.5747 0001416  75.2278 284.8871 15.08835211 99261,6917.895,95.438,540.74,538.78,0.0
54075.0,STARLINK-5212,PAYLOAD,2024-08-02 22:37:32,15.08838481,0.0001523,53.2167,79.2784,77.5551,282.5612,0.00013434,1.851e-05,0.0,0 STARLINK-5212,1 54075U 22136AA  24215.94273382  .00001851  00000-0  13434-3 0  9990,2 54075  53.2167  79.2784 0001523  77.5551 282.5612 15.08838481 98790,6917.885,95.438,540.804,538.696,0.0
54075.0,STARLINK-5212,PAYLOAD,2024-08-03 08:09:51,15.08834492,0.0001383,53.2154,77.494,89.4713,270.6438,0.00019591,2.831e-05,0.0,0 STARLINK-5212,1 54075U 22136AA  24216.34017485  .00002831  00000-0  19591-3 0  9994,2 54075  53.2154  77.4940 0001383  89.4713 270.6438 15.08834492 98855,6917.897,95.438,540.719,538.805,0.0
54075.0,STARLINK-5212,PAYLOAD,2024-08-03 20:52:56,15.08850332,0.0001484,53.2155,75.1175,83.9237,276.1924,0.00076004,0.00011832,0.0,0 STARLINK-5212,1 54075U 22136AA  24216.87009460  .00011832  00000-0  76004-3 0  9999,2 54075  53.2155  75.1175 0001484  83.9237 276.1924 15.08850332 98934,6917.849,95.437,540.74,538.687,0.0
54075.0,STARLINK-5212,PAYLOAD,2024-08-04 08:00:38,15.08852255,0.0001491,53.2144,73.0371,79.6937,280.4224,0.00058393,9.021e-05,0.0,0 STARLINK-5212,1 54075U 22136AA  24217.33377319  .00009021  00000-0  58393-3 0  9990,2 54075  53.2144  73.0371 0001491  79.6937 280.4224 15.08852255 99482,6917.843,95.437,540.739,538.676,0.0
54075.0,STARLINK-5212,PAYLOAD,2024-08-04 20:43:43,15.08848427,0.0001676,53.2161,70.6561,94.6773,265.441,0.00032198,4.841e-05,0.0,0 STARLINK-5212,1 54075U 22136AA  24217.86369292  .00004841  00000-0  32198-3 0  9999,2 54075  53.2161  70.6561 0001676  94.6773 265.4410 15.08848427 99560,6917.855,95.437,540.879,538.56,0.0
54075.0,STARLINK-5212,PAYLOAD,2024-08-05 20:34:29,15.08844052,0.000163,53.2171,66.1944,96.2415,263.8762,7.0464e-05,8.34e-06,0.0,0 STARLINK-5212,1 54075U 22136AA  24218.85729109  .00000834  00000-0  70464-4 0  9993,2 54075  53.2171  66.1944 0001630  96.2415 263.8762 15.08844052 99716,6917.868,95.437,540.861,538.605,0.0
54075.0,STARLINK-5212,PAYLOAD,2024-08-05 23:45:15,15.08848058,0.0001631,53.2179,65.5986,96.3841,263.7337,4.0596e-05,3.58e-06,0.0,0 STARLINK-5212,1 54075U 22136AA  24218.98976821  .00000358  00000-0  40596-4 0  9996,2 54075  53.2179  65.5986 0001631  96.3841 263.7337 15.08848058 99254,6917.856,95.437,540.849,538.592,0.0
54075.0,STARLINK-5212,PAYLOAD,2024-08-06 20:25:17,15.08840832,0.0001302,53.2165,61.7287,84.141,275.9731,-7.933e-05,-1.55e-05,0.0,0 STARLINK-5212,1 54075U 22136AA  24219.85089205 -.00001550  00000-0 -79330-4 0  9999,2 54075  53.2165  61.7287 0001302  84.1410 275.9731 15.08840832 99382,6917.878,95.438,540.644,538.842,0.0
54075.0,STARLINK-5212,PAYLOAD,2024-08-07 20:16:04,15.08844344,0.0001228,53.2168,57.2749,90.7982,269.3151,9.2978e-05,1.192e-05,0.0,0 STARLINK-5212,1 54075U 22136AA  24220.84449193  .00001192  00000-0  92978-4 0  9999,2 54075  53.2168  57.2749 0001228  90.7982 269.3151 15.08844344 99534,6917.867,95.437,540.582,538.883,0.0
54075.0,STARLINK-5212,PAYLOAD,2024-08-08 12:09:55,15.08836487,0.0001629,53.2167,54.3059,52.1199,307.994,0.0001422,1.976e-05,0.0,0 STARLINK-5212,1 54075U 22136AA  24221.50689726  .00001976  00000-0  14220-3 0  9994,2 54075  53.2167  54.3059 0001629  52.1199 307.9940 15.08836487 99637,6917.891,95.438,540.883,538.629,0.0
54075.0,STARLINK-5212,PAYLOAD,2024-08-08 18:31:28,15.08839049,0.0001209,53.2172,53.1138,92.0468,268.0663,8.7056e-05,1.098e-05,0.0,0 STARLINK-5212,1 54075U 22136AA  24221.77185741  .00001098  00000-0  87056-4 0  9994,2 54075  53.2172  53.1138 0001209  92.0468 268.0663 15.08839049100150,6917.883,95.438,540.585,538.912,0.0
54075.0,STARLINK-5212,PAYLOAD,2024-08-09 05:39:10,15.08843522,0.0001308,53.2175,51.0313,96.6651,263.449,0.00014767,2.063e-05,0.0,0 STARLINK-5212,1 54075U 22136AA  24222.23553567  .00002063  00000-0  14767-3 0  9992,2 54075  53.2175  51.0313 0001308  96.6651 263.4490 15.08843522 99749,6917.87,95.437,540.639,538.83,0.0
54075.0,STARLINK-5212,PAYLOAD,2024-08-09 19:57:37,15.08862642,0.0001025,53.217,48.3516,109.4696,250.6407,0.00031237,4.69e-05,0.0,0 STARLINK-5212,1 54075U 22136AA  24222.83168350  .00004690  00000-0  31237-3 0  9999,2 54075  53.2170  48.3516 0001025 109.4696 250.6407 15.08862642100312,6917.811,95.436,540.385,538.967,0.0
54075.0,STARLINK-5212,PAYLOAD,2024-08-09 21:33:00,15.088622,0.0001036,53.217,48.0546,103.075,257.0358,0.00030898,4.636e-05,0.0,0 STARLINK-5212,1 54075U 22136AA  24222.89792377  .00004636  00000-0  30898-3 0  9999,2 54075  53.2170  48.0546 0001036 103.0750 257.0358 15.08862200 99846,6917.813,95.436,540.394,538.961,0.0
54075.0,STARLINK-5212,PAYLOAD,2024-08-10 11:51:29,15.08843152,0.0001434,53.2172,45.3798,91.1084,269.0073,7.6962e-05,9.37e-06,0.0,0 STARLINK-5212,1 54075U 22136AA  24223.49409515  .00000937  00000-0  76962-4 0  9998,2 54075  53.2172  45.3798 0001434  91.1084 269.0073 15.08843152100414,6917.871,95.437,540.728,538.744,0.0
54075.0,STARLINK-5212,PAYLOAD,2024-08-10 19:48:25,15.08845503,0.000142,53.2172,43.8925,89.3934,270.7221,0.00010277,1.348e-05,0.0,0 STARLINK-5212,1 54075U 22136AA  24223.82529390  .00001348  00000-0  10277-3 0  9992,2 54075  53.2172  43.8925 0001420  89.3934 270.7221 15.08845503 99982,6917.864,95.437,540.711,538.746,0.0
54075.0,STARLINK-5212,PAYLOAD,2024-08-11 11:42:17,15.0883484,0.000112,53.2156,40.9229,79.4834,280.6284,1.4772e-05,-5.3e-07,0.0,0 STARLINK-5212,1 54075U 22136AA  24224.48770124 -.00000053  00000-0  14772-4 0  9996,2 54075  53.2156  40.9229 0001120  79.4834 280.6284 15.08834840100563,6917.896,95.438,540.536,538.986,0.0
54075.0,STARLINK-5212,PAYLOAD,2024-08-11 21:14:35,15.08848293,0.0001527,53.2158,39.1382,81.0642,279.0523,5.0519e-05,5.16e-06,0.0,0 STARLINK-5212,1 54075U 22136AA  24224.88513517  .00000516  00000-0  50519-4 0  9993,2 54075  53.2158  39.1382 0001527  81.0642 279.0523 15.08848293100141,6917.855,95.437,540.776,538.664,0.0
54075.0,STARLINK-5212,PAYLOAD,2024-08-12 05:11:31,15.08842569,0.000168,53.2152,37.6525,74.7352,285.3826,-2.0695e-05,-6.17e-06,0.0,0 STARLINK-5212,1 54075U 22136AA  24225.21633821 -.00000617  00000-0 -20695-4 0  9998,2 54075  53.2152  37.6525 0001680  74.7352 285.3826 15.08842569100678,6917.873,95.437,540.9,538.575,0.0
54075.0,STARLINK-5212,PAYLOAD,2024-08-12 11:33:04,15.08843679,0.0001854,53.2147,36.4618,59.4226,300.6949,0.00026092,3.867e-05,0.0,0 STARLINK-5212,1 54075U 22136AA  24225.48130027  .00003867  00000-0  26092-3 0  9991,2 54075  53.2147  36.4618 0001854  59.4226 300.6949 15.08843679100237,6917.869,95.437,541.017,538.452,0.0
54075.0,STARLINK-5212,PAYLOAD,2024-08-12 19:29:58,15.08873179,0.0001309,53.2165,34.9704,89.3868,270.7274,0.00071084,0.00011053,0.0,0 STARLINK-5212,1 54075U 22136AA  24225.81248520  .00011053  00000-0  71084-3 0  9993,2 54075  53.2165  34.9704 0001309  89.3868 270.7274 15.08873179100769,6917.779,95.435,540.55,538.738,0.0
54075.0,STARLINK-5212,PAYLOAD,2024-08-13 20:56:11,15.08812832,0.0001312,53.2188,30.2155,72.9874,287.1262,-0.00030613,-5.153e-05,0.0,0 STARLINK-5212,1 54075U 22136AA  24226.87236013 -.00005153  00000-0 -30613-3 0  9993,2 54075  53.2188  30.2155 0001312  72.9874 287.1262 15.08812832100928,6917.963,95.439,540.736,538.921,0.0
54075.0,STARLINK-5212,PAYLOAD,2024-08-14 09:39:16,15.08831927,9.75e-05,53.2183,27.8348,76.4372,283.6728,0.00020643,2.998e-05,0.0,0 STARLINK-5212,1 54075U 22136AA  24227.40227711  .00002998  00000-0  20643-3 0  9992,2 54075  53.2183  27.8348 0000975  76.4372 283.6728 15.08831927101009,6917.905,95.438,540.445,539.096,0.0
54075.0,STARLINK-5212,PAYLOAD,2024-08-14 14:25:25,15.08839734,0.0001283,53.2167,26.9445,88.3234,271.7905,0.00029498,4.41e-05,0.0,0 STARLINK-5212,1 54075U 22136AA  24227.60099369  .00004410  00000-0  29498-3 0  9998,2 54075  53.2167  26.9445 0001283  88.3234 271.7905 15.08839734100559,6917.881,95.438,540.634,538.859,0.0
